IRIDIUM 57              
1 25273U 98019B   24151.92577492  .00000704  00000+0  23924-3 0  9997
2 25273  86.3935 305.3548 0002056  89.3922 270.7510 14.35229400369942
IRIDIUM 63              
1 25286U 98021B   24151.74698400  .00000588  00000+0  19651-3 0  9999
2 25286  86.4003 242.3163 0002344  91.4004 268.7461 14.35781428368956
IRIDIUM 69              
1 25319U 98026A   24151.79727194  .00000917  00000+0  28513-3 0  9992
2 25319  86.3980 256.7366 0002532 151.6911 208.4426 14.40014216368014
IRIDIUM 71              
1 25320U 98026B   24151.80107543  .00000855  00000+0  26380-3 0  9997
2 25320  86.3985 251.4984 0000162 171.9835 188.1367 14.40327875368539
IRIDIUM 73              
1 25344U 98032C   24151.71060188  .00000815  00000+0  20291-3 0  9994
2 25344  86.4458 209.0089 0002120 106.7620 253.3818 14.50552337375392
IRIDIUM 82              
1 25467U 98051A   24151.91153813  .00015160  00000+0  77510-3 0  9996
2 25467  86.3743 293.9673 0126240 284.5314  74.1947 15.09756613365883
IRIDIUM 2               
1 25527U 98066A   24151.88426239  .00288622  00000+0  12393-2 0  9992
2 25527  85.4973 314.4625 0002447 269.9155  90.1841 15.84343308405188
